{  "version": 0.6,  "generator": "Overpass API 0.7.61.5 4133829e",  "osm3s": {    "timestamp_osm_base": "2023-11-29T01:33:20Z",    "timestamp_areas_base": "2023-11-28T23:11:02Z",    "copyright": "The data included in this document is from www.openstreetmap.org. The data is made available under ODbL."  },  "elements": [{  "type": "node",  "id": 5667327121,  "lat": 41.4943704,  "lon": 22.0915153,  "tags": {    "addr:postcode": "1440",    "addr:street": "Индустриска",    "email": "bovin@t.mk",    "name": "Бовин винарија",    "name:en": "Bovin Winery",    "name:hr": "Bovin vinarija",    "name:ru": "Бовин",    "opening_hours": "Mo-Fr 08:00-16:00",    "phone": "043365322",    "shop": "wine",    "website": "http://www.bovin.com.mk"  }},{  "type": "node",  "id": 5901737585,  "lat": 41.9940075,  "lon": 21.4394921,  "tags": {    "name:en": "Tikves",    "shop": "wine"  }},{  "type": "node",  "id": 5901752486,  "lat": 41.9950477,  "lon": 21.4272901,  "tags": {    "name:en": "Kamnik",    "shop": "wine"  }},{  "type": "node",  "id": 5901753385,  "lat": 41.9956025,  "lon": 21.4310531,  "tags": {    "name": "Сковин",    "name:en": "Skovin",    "shop": "wine"  }},{  "type": "node",  "id": 6348087929,  "lat": 41.7378970,  "lon": 22.1940439,  "tags": {    "shop": "wine"  }},{  "type": "node",  "id": 9870303417,  "lat": 41.1848848,  "lon": 20.8771330,  "tags": {    "email": "info@monasterywinery.com",    "name:en": "monastery winery",    "opening_hours": "Mo-Su 08:00-23:00",    "phone": "+389 78474656",    "shop": "wine",    "website": "https://monasterywinery.com"  }}  ]}